0 THORAD AGENA D DEB
1 04652U 70025AL  13281.77740862  .00000681  00000-0  66543-3 0  2655
2 04652 099.6455 259.4663 0032017 254.2311 227.4209 13.82882473175716
0 THORAD AGENA D DEB
1 04652U 70025AL  13282.92167559  .00000692  00000-0  67481-3 0  2664
2 04652 099.6455 260.6382 0032008 251.1404 164.0962 13.82885609175870
0 THORAD AGENA D DEB
1 04652U 70025AL  13286.76961956  .00000753  00000-0  73030-3 0  2679
2 04652 099.6459 264.5784 0032003 240.6627 241.0489 13.82890985176401
0 THORAD AGENA D DEB
1 04652U 70025AL  13287.91373447  .00000928  00000-0  89015-3 0  2684
2 04652 099.6461 265.7498 0032033 237.5677 177.0080 13.82893911176566
0 THORAD AGENA D DEB
1 04652U 70025AL  13289.21892719  .00000741  00000-0  71993-3 0  2697
2 04652 099.6466 267.0861 0032029 234.0042 194.9349 13.82896649176740
0 THORAD AGENA D DEB
1 04652U 70025AL  13290.88157439  .00000778  00000-0  75357-3 0  2705
2 04652 099.6469 268.7887 0032033 229.5047 192.4369 13.82899286176978
0 THORAD AGENA D DEB
1 04652U 70025AL  13291.89467498  .00000837  00000-0  80680-3 0  2718
2 04652 099.6471 269.8262 0032041 226.7482 196.1911 13.82900428177113
0 THORAD AGENA D DEB
1 04652U 70025AL  13292.90581576  .00000888  00000-0  85350-3 0  2721
2 04652 099.6473 270.8616 0032065 223.9967 190.1933 13.82902059177258
0 THORAD AGENA D DEB
1 04652U 70025AL  13293.91885924  .00000882  00000-0  84850-3 0  2736
2 04652 099.6474 271.8991 0032062 221.2324 193.6805 13.82904515177391
0 THORAD AGENA D DEB
1 04652U 70025AL  13294.93195419  .00000927  00000-0  88930-3 0  2746
2 04652 099.6474 272.9368 0032073 218.4992 197.3988 13.82906412177539
